1 40026U 14033S   20304.05142007  .00000933  00000-0  10015-3 0  9996
2 40026  97.9537 236.3520 0010144 202.7151 157.3619 14.91035604345358
1 40026U 14033S   20304.78961623  .00000773  00000-0  83940-4 0  9999
2 40026  97.9539 237.0959 0010194 200.0927 159.9891 14.91036421345977
1 40026U 14033S   20305.52781144  .00000754  00000-0  82005-4 0  9990
2 40026  97.9540 237.8398 0010247 197.4111 162.6757 14.91037992345579
1 40026U 14033S   20305.79624597  .00000738  00000-0  80419-4 0  9996
2 40026  97.9541 238.1103 0010267 196.4802 163.6083 14.91038476346129
1 40026U 14033S   20305.86335423  .00000877  00000-0  94432-4 0  9995
2 40026  97.9541 238.1780 0010269 196.2204 163.8686 14.91039471345627
1 40026U 14033S   20306.53444007  .00000900  00000-0  96783-4 0  9997
2 40026  97.9542 238.8543 0010319 193.8061 166.2876 14.91040946345720
1 40026U 14033S   20306.80287416  .00000906  00000-0  97334-4 0  9995
2 40026  97.9543 239.1248 0010337 192.8992 167.1963 14.91041540346278
1 40026U 14033S   20306.86998255  .00000927  00000-0  99510-4 0  9992
2 40026  97.9543 239.1925 0010342 192.6471 167.4489 14.91041831345779
1 40026U 14033S   20307.54106777  .00000903  00000-0  97080-4 0  9992
2 40026  97.9544 239.8688 0010398 190.3003 169.8003 14.91042861345873
1 40026U 14033S   20307.80950152  .00000925  00000-0  99279-4 0  9991
2 40026  97.9545 240.1393 0010417 189.4155 170.6869 14.91043504346428
1 40026U 14033S   20307.87661002  .00000912  00000-0  97912-4 0  9999
2 40026  97.9545 240.2070 0010423 189.1802 170.9227 14.91043534345922
1 40026U 14033S   20308.07793544  .00000911  00000-0  97838-4 0  9995
2 40026  97.9546 240.4099 0010433 188.4690 171.6354 14.91043846345952
1 40026U 14033S   20308.81612870  .00000871  00000-0  93853-4 0  9997
2 40026  97.9546 241.1539 0010493 186.0247 174.0846 14.91044611346570
1 40026U 14033S   20309.48721261  .00000914  00000-0  98167-4 0  9997
2 40026  97.9547 241.8303 0010547 183.7333 176.3808 14.91045799346163
1 40026U 14033S   20309.82275415  .00000945  00000-0  10126-3 0  9992
2 40026  97.9548 242.1684 0010571 182.6648 177.4516 14.91046536346724
1 40026U 14033S   20310.56094545  .00000964  00000-0  10321-3 0  9996
2 40026  97.9549 242.9125 0010636 180.2121 179.9094 14.91047755346323
1 40026U 14033S   20310.76227015  .00000967  00000-0  10353-3 0  9996
2 40026  97.9549 243.1154 0010651 179.5515 180.5714 14.91048147346359
1 40026U 14033S   20311.09781113  .00000988  00000-0  10566-3 0  9996
2 40026  97.9550 243.4536 0010678 178.4287 181.6966 14.91048884346912
1 40026U 14033S   20311.56756842  .00001060  00000-0  11288-3 0  9993
2 40026  97.9550 243.9270 0010716 176.8694 183.2593 14.91050100346478
1 40026U 14033S   20311.83600074  .00001125  00000-0  11939-3 0  9993
2 40026  97.9550 244.1976 0010739 175.9944 184.1361 14.91051061346512
1 40026U 14033S   20312.37286544  .00000970  00000-0  10380-3 0  9991
2 40026  97.9551 244.7387 0010786 174.2081 185.9264 14.91051366347106
1 40026U 14033S   20312.77551361  .00000947  00000-0  10144-3 0  9999
2 40026  97.9552 245.1445 0010820 172.8728 187.2645 14.91052131346656
1 40026U 14033S   20315.79536789  .00000783  00000+0  84919-4 0  9990
2 40026  97.9556 248.1885 0011085 162.7371 197.4226 14.91058041347102
1 40026U 14033S   20316.53355329  .00000734  00000+0  79897-4 0  9997
2 40026  97.9557 248.9326 0011153 160.3106 199.8544 14.91059130347218
1 40026U 14033S   20317.27173766  .00000772  00000+0  83795-4 0  9996
2 40026  97.9559 249.6767 0011215 157.9331 202.2372 14.91060757347325
1 40026U 14033S   20318.54678257  .00000856  00000-0  92220-4 0  9999
2 40026  97.9561 250.9621 0011311 153.9275 206.2515 14.91063145347510
1 40026U 14033S   20318.81521268  .00000885  00000-0  95193-4 0  9992
2 40026  97.9561 251.2327 0011323 153.1117 207.0690 14.91063761347558
1 40026U 14033S   20319.82182527  .00001007  00000-0  10746-3 0  9992
2 40026  97.9563 252.2474 0011393 149.9989 210.1884 14.91065879347700
1 40026U 14033S   20320.56000707  .00001040  00000-0  11083-3 0  9996
2 40026  97.9564 252.9916 0011449 147.7289 212.4632 14.91067142347813
1 40026U 14033S   20320.76132913  .00001053  00000-0  11215-3 0  9994
2 40026  97.9564 253.1946 0011461 147.1083 213.0850 14.91067596347844
1 40026U 14033S   20321.29818784  .00001023  00000-0  10910-3 0  9998
2 40026  97.9566 253.7358 0011498 145.4762 214.7205 14.91068387347924
1 40026U 14033S   20321.76793867  .00001049  00000-0  11168-3 0  9998
2 40026  97.9566 254.2094 0011525 144.0460 216.1535 14.91069464348502
1 40026U 14033S   20322.37190364  .00001014  00000-0  10813-3 0  9997
2 40026  97.9568 254.8182 0011573 142.1463 218.0571 14.91070540348084
1 40026U 14033S   20322.77454642  .00001029  00000-0  10966-3 0  9998
2 40026  97.9568 255.2242 0011601 140.9028 219.3030 14.91071571348653
1 40026U 14033S   20323.57983159  .00000948  00000-0  10154-3 0  9995
2 40026  97.9569 256.0360 0011663 138.3728 221.8380 14.91072991348260
1 40026U 14033S   20323.78115261  .00000934  00000-0  10012-3 0  9997
2 40026  97.9570 256.2390 0011672 137.7942 222.4176 14.91073424348800
1 40026U 14033S   20324.78775750  .00000831  00000-0  89676-4 0  9992
2 40026  97.9571 257.2538 0011751 134.6607 225.5570 14.91075198348956
1 40026U 14033S   20325.32461275  .00000850  00000-0  91578-4 0  9992
2 40026  97.9572 257.7951 0011797 132.9925 227.2284 14.91076565348528
1 40026U 14033S   20325.79436081  .00000819  00000-0  88450-4 0  9990
2 40026  97.9573 258.2687 0011829 131.5386 228.6848 14.91077447349109
1 40026U 14033S   20326.06278842  .00000840  00000-0  90570-4 0  9990
2 40026  97.9573 258.5393 0011853 130.6746 229.5504 14.91078057348637
1 40026U 14033S   20326.80096319  .00000832  00000-0  89749-4 0  9996
2 40026  97.9575 259.2836 0011901 128.4121 231.8167 14.91079573349259
1 40026U 14033S   20327.53913668  .00001011  00000-0  10784-3 0  9994
2 40026  97.9576 260.0279 0011953 126.1616 234.0709 14.91082157348856
1 40026U 14033S   20327.80756356  .00000989  00000-0  10557-3 0  9994
2 40026  97.9576 260.2985 0011970 125.3187 234.9152 14.91082529349401
1 40026U 14033S   20328.54573622  .00001135  00000-0  12028-3 0  9998
2 40026  97.9577 261.0428 0012011 123.1140 237.1233 14.91084759349003
1 40026U 14033S   20329.08258880  .00001198  00000-0  12664-3 0  9999
2 40026  97.9577 261.5841 0012034 121.4841 238.7555 14.91086089349081
1 40026U 14033S   20329.48522781  .00001233  00000-0  13016-3 0  9999
2 40026  97.9578 261.9901 0012053 120.2956 239.9455 14.91087049349650
1 40026U 14033S   20329.75365369  .00001222  00000-0  12903-3 0  9998
2 40026  97.9578 262.2607 0012059 119.5343 240.7079 14.91087512349189
1 40026U 14033S   20330.49182411  .00001267  00000-0  13363-3 0  9996
2 40026  97.9579 263.0050 0012088 117.3634 242.8816 14.91089259349803
1 40026U 14033S   20330.55893018  .00001352  00000-0  14218-3 0  9990
2 40026  97.9580 263.0727 0012088 117.1863 243.0588 14.91089927349304
1 40026U 14033S   20330.82735525  .00001380  00000-0  14501-3 0  9994
2 40026  97.9580 263.3434 0012095 116.3943 243.8518 14.91090773349346
1 40026U 14033S   20331.56552368  .00001458  00000-0  15280-3 0  9999
2 40026  97.9581 264.0877 0012118 114.2377 246.0108 14.91093026349456
1 40026U 14033S   20331.76684203  .00001460  00000-0  15308-3 0  9999
2 40026  97.9581 264.2907 0012122 113.6469 246.6023 14.91093638349992
1 40026U 14033S   20332.30369036  .00001519  00000-0  15894-3 0  9999
2 40026  97.9582 264.8320 0012143 112.0796 248.1712 14.91095605349568
1 40026U 14033S   20332.77343174  .00001610  00000-0  16817-3 0  9993
2 40026  97.9582 265.3057 0012158 110.7080 249.5443 14.91097715350144
1 40026U 14033S   20333.44449083  .00001517  00000-0  15871-3 0  9999
2 40026  97.9584 265.9824 0012177 108.7839 251.4701 14.91099355349738
1 40026U 14033S   20333.78001953  .00001547  00000-0  16179-3 0  9991
2 40026  97.9584 266.3207 0012189 107.7861 252.4688 14.91100769350295
1 40026U 14033S   20334.45107674  .00001515  00000-0  15855-3 0  9998
2 40026  97.9585 266.9974 0012220 105.8147 254.4419 14.91102900349881
1 40026U 14033S   20334.78660462  .00001525  00000-0  15949-3 0  9998
2 40026  97.9586 267.3358 0012230 104.8334 255.4240 14.91104223350448
1 40026U 14033S   20335.52476517  .00001629  00000-0  16996-3 0  9995
2 40026  97.9587 268.0801 0012269 102.6349 257.6241 14.91107537350046
1 40026U 14033S   20336.06160879  .00001524  00000-0  15937-3 0  9994
2 40026  97.9588 268.6215 0012297 100.9655 259.2947 14.91108885350637
1 40026U 14033S   20336.53134629  .00001591  00000-0  16616-3 0  9999
2 40026  97.9589 269.0953 0012323  99.5857 260.6754 14.91110900350193
1 40026U 14033S   20336.86687257  .00001586  00000-0  16561-3 0  9998
2 40026  97.9589 269.4336 0012331  98.5904 261.6711 14.91112151350243
1 40026U 14033S   20337.06818826  .00001572  00000-0  16426-3 0  9994
2 40026  97.9590 269.6366 0012342  97.9906 262.2713 14.91112810350271
1 40026U 14033S   20337.06818826  .00001572  00000-0  16426-3 0  9994
2 40026  97.9590 269.6366 0012342  97.9906 262.2713 14.91112810350787
1 40026U 14033S   20337.94055599  .00001439  00000-0  15085-3 0  9993
2 40026  97.9592 270.5164 0012379  95.4506 264.8124 14.91114920350402
1 40026U 14033S   20338.34318684  .00001408  00000-0  14773-3 0  9994
2 40026  97.9593 270.9225 0012394  94.2683 265.9952 14.91115972350976
1 40026U 14033S   20338.54450219  .00001382  00000-0  14507-3 0  9993
2 40026  97.9593 271.1255 0012398  93.6889 266.5747 14.91116391350499
1 40026U 14033S   20339.08134205  .00001424  00000-0  14935-3 0  9999
2 40026  97.9594 271.6669 0012401  92.1296 268.1342 14.91118330350578
1 40026U 14033S   20339.55107711  .00001416  00000-0  14853-3 0  9993
2 40026  97.9594 272.1406 0012404  90.7618 269.5021 14.91119499350642
1 40026U 14033S   20339.55107711  .00001416  00000-0  14853-3 0  9993
2 40026  97.9594 272.1406 0012404  90.7618 269.5021 14.91119499351159
1 40026U 14033S   20340.08791596  .00001463  00000-0  15325-3 0  9990
2 40026  97.9595 272.6820 0012407  89.1953 271.0686 14.91121362350721
